[{"OBJECT_NAME":"ONEWEB-0686","OBJECT_ID":"2023-068M","EPOCH":"2026-02-24T06:32:34.913184","MEAN_MOTION":13.16592573,"ECCENTRICITY":0.00019562,"INCLINATION":87.8988,"RA_OF_ASC_NODE":251.2708,"ARG_OF_PERICENTER":96.5275,"MEAN_ANOMALY":263.6079,"EPHEMERIS_TYPE":0,"CLASSIFICATION_TYPE":"U","NORAD_CAT_ID":56721,"ELEMENT_SET_NO":999,"REV_AT_EPOCH":13685,"BSTAR":-0.00011934944,"MEAN_MOTION_DOT":-3.3e-7,"MEAN_MOTION_DDOT":0},{"OBJECT_NAME":"ONEWEB-0694","OBJECT_ID":"2023-068N","EPOCH":"2026-02-24T01:13:22.030752","MEAN_MOTION":13.16592492,"ECCENTRICITY":0.00019895,"INCLINATION":87.9004,"RA_OF_ASC_NODE":251.2579,"ARG_OF_PERICENTER":83.8157,"MEAN_ANOMALY":276.3201,"EPHEMERIS_TYPE":0,"CLASSIFICATION_TYPE":"U","NORAD_CAT_ID":56722,"ELEMENT_SET_NO":999,"REV_AT_EPOCH":13688,"BSTAR":0.00025102702,"MEAN_MOTION_DOT":1.09e-6,"MEAN_MOTION_DDOT":0},{"OBJECT_NAME":"ONEWEB-0696","OBJECT_ID":"2023-068P","EPOCH":"2026-02-24T03:38:07.343232","MEAN_MOTION":13.15548378,"ECCENTRICITY":0.00014157,"INCLINATION":87.8947,"RA_OF_ASC_NODE":281.7963,"ARG_OF_PERICENTER":104.0549,"MEAN_ANOMALY":256.0739,"EPHEMERIS_TYPE":0,"CLASSIFICATION_TYPE":"U","NORAD_CAT_ID":56723,"ELEMENT_SET_NO":999,"REV_AT_EPOCH":13450,"BSTAR":0.00048007159,"MEAN_MOTION_DOT":1.94e-6,"MEAN_MOTION_DDOT":0},{"OBJECT_NAME":"ONEWEB-0703","OBJECT_ID":"2023-068Q","EPOCH":"2026-02-24T03:51:47.635200","MEAN_MOTION":13.15549043,"ECCENTRICITY":7.851e-5,"INCLINATION":87.8949,"RA_OF_ASC_NODE":281.7754,"ARG_OF_PERICENTER":121.0968,"MEAN_ANOMALY":239.024,"EPHEMERIS_TYPE":0,"CLASSIFICATION_TYPE":"U","NORAD_CAT_ID":56724,"ELEMENT_SET_NO":999,"REV_AT_EPOCH":13439,"BSTAR":-0.00036958236,"MEAN_MOTION_DOT":-1.26e-6,"MEAN_MOTION_DDOT":0},{"OBJECT_NAME":"ONEWEB-0721","OBJECT_ID":"2023-068R","EPOCH":"2026-02-24T06:08:45.435552","MEAN_MOTION":13.22460842,"ECCENTRICITY":0.0001892,"INCLINATION":86.6786,"RA_OF_ASC_NODE":121.5729,"ARG_OF_PERICENTER":104.3101,"MEAN_ANOMALY":255.8242,"EPHEMERIS_TYPE":0,"CLASSIFICATION_TYPE":"U","NORAD_CAT_ID":56725,"ELEMENT_SET_NO":999,"REV_AT_EPOCH":14301,"BSTAR":0.00015840691,"MEAN_MOTION_DOT":8.0e-7,"MEAN_MOTION_DDOT":0},{"OBJECT_NAME":"ONEWEB-0015","OBJECT_ID":"2024-188A","EPOCH":"2026-02-23T22:22:45.218784","MEAN_MOTION":13.11418229,"ECCENTRICITY":0.00017664,"INCLINATION":87.8832,"RA_OF_ASC_NODE":43.6197,"ARG_OF_PERICENTER":67.3786,"MEAN_ANOMALY":292.7529,"EPHEMERIS_TYPE":0,"CLASSIFICATION_TYPE":"U","NORAD_CAT_ID":61594,"ELEMENT_SET_NO":999,"REV_AT_EPOCH":6961,"BSTAR":-0.00029073422,"MEAN_MOTION_DOT":-9.0e-7,"MEAN_MOTION_DDOT":0},{"OBJECT_NAME":"ONEWEB-0687","OBJECT_ID":"2024-188B","EPOCH":"2026-02-23T20:35:38.213088","MEAN_MOTION":13.17649423,"ECCENTRICITY":0.0002228,"INCLINATION":87.9109,"RA_OF_ASC_NODE":28.3938,"ARG_OF_PERICENTER":71.1551,"MEAN_ANOMALY":288.9822,"EPHEMERIS_TYPE":0,"CLASSIFICATION_TYPE":"U","NORAD_CAT_ID":61595,"ELEMENT_SET_NO":999,"REV_AT_EPOCH":7097,"BSTAR":-4.7078414e-5,"MEAN_MOTION_DOT":-5.0e-8,"MEAN_MOTION_DDOT":0},{"OBJECT_NAME":"ONEWEB-0688","OBJECT_ID":"2024-188C","EPOCH":"2026-02-24T04:34:20.567712","MEAN_MOTION":13.17649215,"ECCENTRICITY":0.00019114,"INCLINATION":87.9121,"RA_OF_ASC_NODE":28.3269,"ARG_OF_PERICENTER":42.9562,"MEAN_ANOMALY":317.1719,"EPHEMERIS_TYPE":0,"CLASSIFICATION_TYPE":"U","NORAD_CAT_ID":61596,"ELEMENT_SET_NO":999,"REV_AT_EPOCH":7101,"BSTAR":-5.2882363e-5,"MEAN_MOTION_DOT":-8.0e-8,"MEAN_MOTION_DDOT":0},{"OBJECT_NAME":"ONEWEB-0689","OBJECT_ID":"2024-188D","EPOCH":"2026-02-23T21:21:42.505920","MEAN_MOTION":13.11414963,"ECCENTRICITY":0.00022025,"INCLINATION":87.8849,"RA_OF_ASC_NODE":43.5667,"ARG_OF_PERICENTER":83.5741,"MEAN_ANOMALY":276.5637,"EPHEMERIS_TYPE":0,"CLASSIFICATION_TYPE":"U","NORAD_CAT_ID":61597,"ELEMENT_SET_NO":999,"REV_AT_EPOCH":6960,"BSTAR":0.00016359319,"MEAN_MOTION_DOT":7.1e-7,"MEAN_MOTION_DDOT":0},{"OBJECT_NAME":"ONEWEB-0690","OBJECT_ID":"2024-188E","EPOCH":"2026-02-24T04:55:49.304064","MEAN_MOTION":13.11413487,"ECCENTRICITY":0.00013483,"INCLINATION":87.8848,"RA_OF_ASC_NODE":43.5242,"ARG_OF_PERICENTER":103.4342,"MEAN_ANOMALY":256.6936,"EPHEMERIS_TYPE":0,"CLASSIFICATION_TYPE":"U","NORAD_CAT_ID":61598,"ELEMENT_SET_NO":999,"REV_AT_EPOCH":6982,"BSTAR":-0.0001193024,"MEAN_MOTION_DOT":-3.0e-7,"MEAN_MOTION_DDOT":0},{"OBJECT_NAME":"ONEWEB-0691","OBJECT_ID":"2024-188F","EPOCH":"2026-02-23T21:29:01.499136","MEAN_MOTION":13.11415245,"ECCENTRICITY":0.00018637,"INCLINATION":87.8853,"RA_OF_ASC_NODE":43.4858,"ARG_OF_PERICENTER":73.0536,"MEAN_ANOMALY":287.0796,"EPHEMERIS_TYPE":0,"CLASSIFICATION_TYPE":"U","NORAD_CAT_ID":61599,"ELEMENT_SET_NO":999,"REV_AT_EPOCH":6963,"BSTAR":-0.00039440059,"MEAN_MOTION_DOT":-1.27e-6,"MEAN_MOTION_DDOT":0},{"OBJECT_NAME":"ONEWEB-0692","OBJECT_ID":"2024-188G","EPOCH":"2026-02-23T21:58:19.046208","MEAN_MOTION":13.11416532,"ECCENTRICITY":0.00025991,"INCLINATION":87.8835,"RA_OF_ASC_NODE":43.6168,"ARG_OF_PERICENTER":100.7956,"MEAN_ANOMALY":259.3465,"EPHEMERIS_TYPE":0,"CLASSIFICATION_TYPE":"U","NORAD_CAT_ID":61600,"ELEMENT_SET_NO":999,"REV_AT_EPOCH":6962,"BSTAR":-0.0018047169,"MEAN_MOTION_DOT":-6.27e-6,"MEAN_MOTION_DDOT":0},{"OBJECT_NAME":"ONEWEB-0693","OBJECT_ID":"2024-188H","EPOCH":"2026-02-24T06:40:41.876544","MEAN_MOTION":13.17650003,"ECCENTRICITY":0.00010687,"INCLINATION":87.911,"RA_OF_ASC_NODE":28.3309,"ARG_OF_PERICENTER":94.1101,"MEAN_ANOMALY":266.0153,"EPHEMERIS_TYPE":0,"CLASSIFICATION_TYPE":"U","NORAD_CAT_ID":61601,"ELEMENT_SET_NO":999,"REV_AT_EPOCH":7101,"BSTAR":9.8994031e-5,"MEAN_MOTION_DOT":5.1e-7,"MEAN_MOTION_DDOT":0},{"OBJECT_NAME":"ONEWEB-0695","OBJECT_ID":"2024-188J","EPOCH":"2026-02-24T04:43:38.725536","MEAN_MOTION":13.11414571,"ECCENTRICITY":0.00023989,"INCLINATION":87.8839,"RA_OF_ASC_NODE":43.5512,"ARG_OF_PERICENTER":88.7885,"MEAN_ANOMALY":271.3518,"EPHEMERIS_TYPE":0,"CLASSIFICATION_TYPE":"U","NORAD_CAT_ID":61602,"ELEMENT_SET_NO":999,"REV_AT_EPOCH":6965,"BSTAR":0.00061790349,"MEAN_MOTION_DOT":2.32e-6,"MEAN_MOTION_DDOT":0},{"OBJECT_NAME":"ONEWEB-0697","OBJECT_ID":"2024-188K","EPOCH":"2026-02-24T05:30:00.029664","MEAN_MOTION":13.11417379,"ECCENTRICITY":0.00024909,"INCLINATION":87.8837,"RA_OF_ASC_NODE":43.534,"ARG_OF_PERICENTER":99.9227,"MEAN_ANOMALY":260.2182,"EPHEMERIS_TYPE":0,"CLASSIFICATION_TYPE":"U","NORAD_CAT_ID":61603,"ELEMENT_SET_NO":999,"REV_AT_EPOCH":6964,"BSTAR":-0.0015182245,"MEAN_MOTION_DOT":-5.25e-6,"MEAN_MOTION_DDOT":0},{"OBJECT_NAME":"ONEWEB-0698","OBJECT_ID":"2024-188L","EPOCH":"2026-02-24T04:58:15.747744","MEAN_MOTION":13.1141424,"ECCENTRICITY":0.00021342,"INCLINATION":87.8835,"RA_OF_ASC_NODE":43.5541,"ARG_OF_PERICENTER":120.4263,"MEAN_ANOMALY":239.7076,"EPHEMERIS_TYPE":0,"CLASSIFICATION_TYPE":"U","NORAD_CAT_ID":61604,"ELEMENT_SET_NO":999,"REV_AT_EPOCH":6966,"BSTAR":-0.00079351381,"MEAN_MOTION_DOT":-2.69e-6,"MEAN_MOTION_DDOT":0},{"OBJECT_NAME":"ONEWEB-0699","OBJECT_ID":"2024-188M","EPOCH":"2026-02-24T01:17:20.068800","MEAN_MOTION":13.10375835,"ECCENTRICITY":0.00023465,"INCLINATION":87.8768,"RA_OF_ASC_NODE":58.7966,"ARG_OF_PERICENTER":102.8087,"MEAN_ANOMALY":257.3303,"EPHEMERIS_TYPE":0,"CLASSIFICATION_TYPE":"U","NORAD_CAT_ID":61605,"ELEMENT_SET_NO":999,"REV_AT_EPOCH":6849,"BSTAR":0.00014234714,"MEAN_MOTION_DOT":6.2e-7,"MEAN_MOTION_DDOT":0}]
