ONEWEB-0686             
1 56721U 23068M   26055.27262631 -.00000033  00000+0 -11935-3 0  9996
2 56721  87.8988 251.2708 0001956  96.5275 263.6079 13.16592573136859
ONEWEB-0694             
1 56722U 23068N   26055.05094943  .00000109  00000+0  25103-3 0  9996
2 56722  87.9004 251.2579 0001989  83.8157 276.3201 13.16592492136881
ONEWEB-0696             
1 56723U 23068P   26055.15147388  .00000194  00000+0  48007-3 0  9992
2 56723  87.8947 281.7963 0001415 104.0549 256.0739 13.15548378134508
ONEWEB-0703             
1 56724U 23068Q   26055.16096800 -.00000126  00000+0 -36958-3 0  9995
2 56724  87.8949 281.7754 0000785 121.0968 239.0240 13.15549043134397
ONEWEB-0721             
1 56725U 23068R   26055.25608143  .00000080  00000+0  15841-3 0  9990
2 56725  86.6786 121.5729 0001892 104.3101 255.8242 13.22460842143014
ONEWEB-0015             
1 61594U 24188A   26054.93246781 -.00000090  00000+0 -29073-3 0  9999
2 61594  87.8832  43.6197 0001766  67.3786 292.7529 13.11418229 69610
ONEWEB-0687             
1 61595U 24188B   26054.85808117 -.00000005  00000+0 -47078-4 0  9990
2 61595  87.9109  28.3938 0002228  71.1551 288.9822 13.17649423 70971
ONEWEB-0688             
1 61596U 24188C   26055.19051583 -.00000008  00000+0 -52882-4 0  9998
2 61596  87.9121  28.3269 0001911  42.9562 317.1719 13.17649215 71014
ONEWEB-0689             
1 61597U 24188D   26054.89007530  .00000071  00000+0  16359-3 0  9994
2 61597  87.8849  43.5667 0002202  83.5741 276.5637 13.11414963 69609
ONEWEB-0690             
1 61598U 24188E   26055.20543176 -.00000030  00000+0 -11930-3 0  9999
2 61598  87.8848  43.5242 0001348 103.4342 256.6936 13.11413487 69822
ONEWEB-0691             
1 61599U 24188F   26054.89515624 -.00000127  00000+0 -39440-3 0  9994
2 61599  87.8853  43.4858 0001863  73.0536 287.0796 13.11415245 69635
ONEWEB-0692             
1 61600U 24188G   26054.91549822 -.00000627  00000+0 -18047-2 0  9991
2 61600  87.8835  43.6168 0002599 100.7956 259.3465 13.11416532 69629
ONEWEB-0693             
1 61601U 24188H   26055.27826246  .00000051  00000+0  98994-4 0  9990
2 61601  87.9110  28.3309 0001068  94.1101 266.0153 13.17650003 71016
ONEWEB-0695             
1 61602U 24188J   26055.19697599  .00000232  00000+0  61790-3 0  9993
2 61602  87.8839  43.5512 0002398  88.7885 271.3518 13.11414571 69657
ONEWEB-0697             
1 61603U 24188K   26055.22916701 -.00000525  00000+0 -15182-2 0  9997
2 61603  87.8837  43.5340 0002490  99.9227 260.2182 13.11417379 69644
ONEWEB-0698             
1 61604U 24188L   26055.20712671 -.00000269  00000+0 -79351-3 0  9990
2 61604  87.8835  43.5541 0002134 120.4263 239.7076 13.11414240 69660
ONEWEB-0699             
1 61605U 24188M   26055.05370450  .00000062  00000+0  14235-3 0  9998
2 61605  87.8768  58.7966 0002346 102.8087 257.3303 13.10375835 68492
